{
  "norad_id": 63938,
  "name": "STARLINK-33988",
  "history": [
    {
      "epoch": "2026-03-28T20:00:01.999872Z",
      "apogee_km": 574.5454312541779,
      "perigee_km": 569.664554312325,
      "latitude_deg": 14.778576483342194,
      "longitude_deg": -85.47829169350744,
      "height_km": 574.9833513255799,
      "semi_major_axis_km": 6950.241992783251,
      "eccentricity": 0.00035113,
      "inclination_deg": 70.0003,
      "raan_deg": 226.2579,
      "arg_perigee_deg": 282.9955,
      "mean_anomaly_deg": 241.2719,
      "mean_motion_rev_day": 14.98314122
    }
  ]
}